NORAD_CAT_ID,OBJECT_NAME,OBJECT_TYPE,EPOCH,MEAN_MOTION,ECCENTRICITY,INCLINATION,RA_OF_ASC_NODE,ARG_OF_PERICENTER,MEAN_ANOMALY,BSTAR,MEAN_MOTION_DOT,MEAN_MOTION_DDOT,TLE_LINE0,TLE_LINE1,TLE_LINE2,SEMIMAJOR_AXIS,PERIOD,APOGEE,PERIGEE,DECAYED
53569.0,STARLINK-4582,PAYLOAD,2022-08-24 14:00:01,15.90211958,0.0039556,53.2174,131.3913,56.0052,45.8163,-0.0038786,-0.01289258,0.0004772,0 STARLINK-4582,1 53569U 22101AU  22236.58334491 -.01289258  47720-3 -38786-2 0  9990,2 53569  53.2174 131.3913 0039556  56.0052  45.8163 15.90211958   771,6679.826,90.554,328.1140000000001,275.269,0.0
53569.0,STARLINK-4582,PAYLOAD,2022-08-25 06:00:02,15.88510419,0.0031323,53.2171,128.0146,57.2766,261.2913,-0.0045857,-0.01358876,0.00051688,0 STARLINK-4582,1 53569U 22101AU  22237.25002315 -.01358876  51688-3 -45857-2 0  9990,2 53569  53.2171 128.0146 0031323  57.2766 261.2913 15.88510419   877,6684.595,90.651,327.399,285.522,0.0
53569.0,STARLINK-4582,PAYLOAD,2022-08-25 12:00:00,15.87859662,0.0029530999999999,53.2175,126.7483,57.7537,250.93400000000003,-0.0047732,-0.0136201999999999,0.00051595,0 STARLINK-4582,1 53569U 22101AU  22237.50001157 -.01362020  51595-3 -47732-2 0  9998,2 53569  53.2175 126.7483 0029531  57.7537 250.9340 15.87859662   918,6686.422,90.688,328.032,288.541,0.0
53569.0,STARLINK-4582,PAYLOAD,2022-08-25 14:00:01,15.87611203,0.0028756,53.2174,126.3264,57.2884,8.0085,-0.0046071,-0.01296476,0.00047053,0 STARLINK-4582,1 53569U 22101AU  22237.58334491 -.01296476  47053-3 -46071-2 0  9996,2 53569  53.2174 126.3264 0028756  57.2884   8.0085 15.87611203  1307,6687.119000000002,90.702,328.214,289.755,0.0
53569.0,STARLINK-4582,PAYLOAD,2022-08-25 18:00:00,15.87209725,0.0026847,53.2175,125.4848,58.0299,240.2551,-0.0049707,-0.01363945,0.00051421,0 STARLINK-4582,1 53569U 22101AU  22237.75001157 -.01363945  51421-3 -49707-2 0  9994,2 53569  53.2175 125.4848 0026847  58.0299 240.2551 15.87209725   954,6688.246999999999,90.725,328.0680000000001,292.156,0.0
53569.0,STARLINK-4582,PAYLOAD,2022-08-25 22:00:00,15.86760386,0.0025314,53.2176,124.6441,57.0628,113.9662,-0.0049772,-0.01331376,0.00049004,0 STARLINK-4582,1 53569U 22101AU  22237.91667824 -.01331376  49004-3 -49772-2 0  9990,2 53569  53.2176 124.6441 0025314  57.0628 113.9662 15.86760386  1301,6689.51,90.751,328.30800000000005,294.441,0.0
53569.0,STARLINK-4582,PAYLOAD,2022-08-26 12:00:00,15.85262006,0.0019515,53.2174,121.7011,58.2408,205.3159,-0.0055921,-0.01211714,0.0,0 STARLINK-4582,1 53569U 22101AU  22238.50001157 -.01211714  00000-0 -55921-2 0  9993,2 53569  53.2174 121.7011 0019515  58.2408 205.3159 15.85262006  1071,6693.724,90.837,328.652,302.526,0.0
53569.0,STARLINK-4582,PAYLOAD,2022-08-26 14:00:01,15.85019136,0.0018567999999999,53.2172,121.2808,57.409,322.0389,-0.0054499,-0.01170208,0.0,0 STARLINK-4582,1 53569U 22101AU  22238.58335648 -.01170208  00000-0 -54499-2 0  9997,2 53569  53.2172 121.2808 0018568  57.4090 322.0389 15.85019136  1305,6694.408,90.851,328.7030000000001,303.843,0.0
53569.0,STARLINK-4582,PAYLOAD,2022-08-26 22:00:00,15.84145573,0.0015815,53.2172,119.6052,56.4011,65.5913,-0.0056435,-0.01156953,0.0,0 STARLINK-4582,1 53569U 22101AU  22238.91667824 -.01156953  00000-0 -56435-2 0  9991,2 53569  53.2172 119.6052 0015815  56.4011  65.5913 15.84145573  1307,6696.869000000002,90.901,329.325,308.143,0.0
53569.0,STARLINK-4582,PAYLOAD,2022-08-27 14:00:01,15.82433299,0.0009117,53.2175,116.2546,52.9207,271.1563,-0.0064043999999999,-0.01215423,0.0,0 STARLINK-4582,1 53569U 22101AU  22239.58334491 -.01215423  00000-0 -64044-2 0  9999,2 53569  53.2175 116.2546 0009117  52.9207 271.1563 15.82433299  1306,6701.699000000001,90.999,329.6740000000001,317.454,0.0
53569.0,STARLINK-4582,PAYLOAD,2022-08-27 20:00:01,15.81786836,0.0007207,53.2176,115.0026,46.5386,262.2443,-0.0066488,-0.01220736,0.0,0 STARLINK-4582,1 53569U 22101AU  22239.83334491 -.01220736  00000-0 -66488-2 0  9994,2 53569  53.2176 115.0026 0007207  46.5386 262.2443 15.81786836  1284,6703.525,91.036,330.221,320.558,0.0
53569.0,STARLINK-4582,PAYLOAD,2022-08-27 22:00:00,15.81543538,0.0006562,53.2176,114.5855,42.2015,21.3624,-0.0064502,-0.01175476,0.0,0 STARLINK-4582,1 53569U 22101AU  22239.91667824 -.01175476  00000-0 -64502-2 0  9997,2 53569  53.2176 114.5855 0006562  42.2015  21.3624 15.81543538  1301,6704.212,91.05,330.476,321.678,0.0
53569.0,STARLINK-4582,PAYLOAD,2022-08-28 14:00:01,15.79824331,0.0002984,53.2172,111.2476,13.2015,246.1909,-0.0071804,-0.01201454,0.0,0 STARLINK-4582,1 53569U 22101AU  22240.58334491 -.01201454  00000-0 -71804-2 0  9992,2 53569  53.2172 111.2476 0002984  13.2015 246.1909 15.79824331  1305,6709.075,91.149,332.94199999999995,328.9380000000001,0.0
53569.0,STARLINK-4582,PAYLOAD,2022-08-28 20:00:01,15.79167512,0.0002887999999999,53.2174,110.0006,11.4064,230.3485,-0.0073298,-0.01191163,0.0,0 STARLINK-4582,1 53569U 22101AU  22240.83334491 -.01191163  00000-0 -73298-2 0  9994,2 53569  53.2174 110.0006 0002888  11.4064 230.3485 15.79167512  1440,6710.935,91.187,334.73800000000006,330.862,0.0
53569.0,STARLINK-4582,PAYLOAD,2022-08-28 22:00:00,15.78955495,0.0002981,53.2173,109.585,7.2615,348.4817,-0.0074565,-0.01199117,0.0,0 STARLINK-4582,1 53569U 22101AU  22240.91667824 -.01199117  00000-0 -74565-2 0  9997,2 53569  53.2173 109.5850 0002981   7.2615 348.4817 15.78955495  1307,6711.536,91.2,335.402,331.4,0.0
53569.0,STARLINK-4582,PAYLOAD,2022-08-29 12:00:00,15.774375400000002,0.0003386,53.2179,106.6753,350.3675,81.4827,-0.0080004999999999,-0.01200964,0.0,0 STARLINK-4582,1 53569U 22101AU  22241.50001157 -.01200964  00000-0 -80005-2 0  9993,2 53569  53.2179 106.6753 0003386 350.3675  81.4827 15.77437540  1558,6715.840999999999,91.287,339.98,335.432,0.0
53569.0,STARLINK-4582,PAYLOAD,2022-08-29 14:00:01,15.77218588,0.0003337,53.2175,106.26,359.1467,186.1727,-0.0080485,-0.01196804,0.0,0 STARLINK-4582,1 53569U 22101AU  22241.58334491 -.01196804  00000-0 -80485-2 0  9990,2 53569  53.2175 106.2600 0003337 359.1467 186.1727 15.77218588  1307,6716.462,91.3,340.569,336.086,0.0
53569.0,STARLINK-4582,PAYLOAD,2022-08-29 22:00:00,15.76340724,0.0003543999999999,53.2175,104.6039,336.4065,302.1381,-0.008243,-0.01180624,0.0,0 STARLINK-4582,1 53569U 22101AU  22241.91667824 -.01180624  00000-0 -82430-2 0  9991,2 53569  53.2175 104.6039 0003544 336.4065 302.1381 15.76340724  1300,6718.956,91.351,343.202,338.44,0.0
53569.0,STARLINK-4582,PAYLOAD,2022-08-30 06:00:00,15.75480785,0.0001032999999999,53.2172,102.947,354.4775,16.2442,-0.0086636,-0.01191417,0.0,0 STARLINK-4582,1 53569U 22101AU  22242.25001157 -.01191417  00000-0 -86636-2 0  9994,2 53569  53.2172 102.9470 0001033 354.4775  16.2442 15.75480785  1667,6721.4,91.401,343.96,342.571,0.0
53569.0,STARLINK-4582,PAYLOAD,2022-08-30 14:00:01,15.74701543,0.0001245,53.2168,101.2921,43.2654,58.5421,-0.0098449,-0.01318198,0.0,0 STARLINK-4582,1 53569U 22101AU  22242.58334491 -.01318198  00000-0 -98449-2 0  9992,2 53569  53.2168 101.2921 0001245  43.2654  58.5421 15.74701543  1303,6723.618,91.446,346.32,344.646,0.0
53569.0,STARLINK-4582,PAYLOAD,2022-08-30 20:00:01,15.73817995,0.0001193,53.2174,100.0542,37.6196,41.9272,-0.0052591,-0.00698735,0.0,0 STARLINK-4582,1 53569U 22101AU  22242.83334491 -.00698735  00000-0 -52591-2 0  9995,2 53569  53.2174 100.0542 0001193  37.6196  41.9272 15.73817995  1764,6726.134,91.497,348.801,347.196,0.0
53569.0,STARLINK-4582,PAYLOAD,2022-08-30 22:00:00,15.73632902,0.0001075,53.2172,99.6424,58.7544,133.1999,-0.0041101,-0.00551327,0.0,0 STARLINK-4582,1 53569U 22101AU  22242.91667824 -.00551327  00000-0 -41101-2 0  9993,2 53569  53.2172  99.6424 0001075  58.7544 133.1999 15.73632902  1307,6726.661,91.508,349.249,347.80300000000005,0.0
53569.0,STARLINK-4582,PAYLOAD,2022-08-31 12:00:00,15.73227285,0.0001144,53.2158,96.7558,65.1531,192.741,0.00016916,0.00023214,0.0,0 STARLINK-4582,1 53569U 22101AU  22243.50001157  .00023214  00000-0  16916-3 0  9994,2 53569  53.2158  96.7558 0001144  65.1531 192.7410 15.73227285  1866,6727.816999999999,91.532,350.452,348.913,0.0
53569.0,STARLINK-4582,PAYLOAD,2022-08-31 14:00:01,15.73219603,0.0001132,53.2163,96.3424,67.7402,302.3995,0.000342,0.0004769,0.0,0 STARLINK-4582,1 53569U 22101AU  22243.58334491  .00047690  00000-0  34200-3 0  9992,2 53569  53.2163  96.3424 0001132  67.7402 302.3995 15.73219603  1303,6727.839,91.532,350.466,348.9430000000001,0.0
53569.0,STARLINK-4582,PAYLOAD,2022-08-31 20:00:01,15.73263049,0.000113,53.2156,95.1084,54.012,292.8435,-0.00077702,-0.00108563,0.0,0 STARLINK-4582,1 53569U 22101AU  22243.83334491 -.00108563  00000-0 -77702-3 0  9993,2 53569  53.2156  95.1084 0001130  54.0120 292.8435 15.73263049  1910,6727.715,91.53,350.341,348.82,0.0
53569.0,STARLINK-4582,PAYLOAD,2022-08-31 22:00:00,15.73234243,0.0001176,53.2156,94.6965,51.3989,47.7064,-0.00054619,-0.00076689,0.0,0 STARLINK-4582,1 53569U 22101AU  22243.91667824 -.00076689  00000-0 -54619-3 0  9996,2 53569  53.2156  94.6965 0001176  51.3989  47.7064 15.73234243  1307,6727.7980000000025,91.531,350.454,348.871,0.0
53569.0,STARLINK-4582,PAYLOAD,2022-09-01 04:00:01,15.73211466,0.000113,53.2151,93.4587,48.5623,27.3178,-0.00062745,-0.00087806,0.0,0 STARLINK-4582,1 53569U 22101AU  22244.16668981 -.00087806  00000-0 -62745-3 0  9991,2 53569  53.2151  93.4587 0001130  48.5623  27.3178 15.73211466  1977,6727.861999999999,91.533,350.48800000000006,348.967,0.0
53569.0,STARLINK-4582,PAYLOAD,2022-09-01 12:00:00,15.73138758,0.0001036,53.2154,91.8075,64.6027,100.1274,0.00057916,0.00081236,0.0,0 STARLINK-4582,1 53569U 22101AU  22244.50001157  .00081236  00000-0  57916-3 0  9998,2 53569  53.2154  91.8075 0001036  64.6027 100.1274 15.73138758  2022,6728.07,91.537,350.63199999999995,349.23800000000006,0.0
53569.0,STARLINK-4582,PAYLOAD,2022-09-01 14:00:01,15.73158277,0.0001063,53.2157,91.3953,65.4236,211.5798,0.00037193,0.00051807,0.0,0 STARLINK-4582,1 53569U 22101AU  22244.58335648  .00051807  00000-0  37193-3 0  9997,2 53569  53.2157  91.3953 0001063  65.4236 211.5798 15.73158277  1302,6728.014,91.536,350.594,349.164,0.0
